ONEWEB-0665             
1 55825U 23029AF  25112.68373008 -.00000131  00000+0 -38714-3 0  9999
2 55825  87.9094  13.3617 0001733  71.6655 288.4663 13.14502558104162
ONEWEB-0666             
1 55826U 23029AG  25113.03798858  .00000249  00000+0  58054-3 0  9991
2 55826  87.9308 358.1369 0002099  95.3091 264.8282 13.20773405106376
ONEWEB-0667             
1 55827U 23029AH  25113.10743310  .00000006  00000+0 -16486-4 0  9999
2 55827  87.9310 358.0544 0001914  75.1398 284.9947 13.20771907106371
ONEWEB-0669             
1 55828U 23029AJ  25112.64816272  .00000074  00000+0  15100-3 0  9991
2 55828  87.9314 358.1808 0002547  89.4157 270.7269 13.20770731105636
ONEWEB-0670             
1 55829U 23029AK  25112.28094144 -.00000099  00000+0 -30180-3 0  9992
2 55829  87.9114  13.4560 0002118  77.0468 283.0898 13.14502956104137
ONEWEB-0671             
1 55830U 23029AL  25113.72083053  .00000030  00000+0  42209-4 0  9990
2 55830  87.9269  28.3581 0001925  74.2379 285.8965 13.19727256104269
ONEWEB-0672             
1 55831U 23029AM  25112.64342358  .00000116  00000+0  25238-3 0  9994
2 55831  87.9324 358.1661 0001991  93.8294 266.3067 13.20772215105637
ONEWEB-0673             
1 55832U 23029AN  25112.71151097  .00000075  00000+0  15569-3 0  9991
2 55832  87.9265  28.5234 0001689  72.8945 287.2373 13.19726089103445
